[{"OBJECT_NAME":"ZACUBE-1 (TSHEPISOSAT)","OBJECT_ID":"2013-066B","EPOCH":"2026-03-09T22:19:27.469056","MEAN_MOTION":15.00329659,"ECCENTRICITY":0.00425262,"INCLINATION":97.8171,"RA_OF_ASC_NODE":30.7553,"ARG_OF_PERICENTER":219.1599,"MEAN_ANOMALY":140.6545,"EPHEMERIS_TYPE":0,"CLASSIFICATION_TYPE":"U","NORAD_CAT_ID":39417,"ELEMENT_SET_NO":999,"REV_AT_EPOCH":66584,"BSTAR":0.00042975473,"MEAN_MOTION_DOT":5.431e-5,"MEAN_MOTION_DDOT":0},{"OBJECT_NAME":"STARLINK-6066","OBJECT_ID":"2023-046N","EPOCH":"2026-03-09T22:56:43.180512","MEAN_MOTION":15.02528705,"ECCENTRICITY":0.00014316,"INCLINATION":43.0053,"RA_OF_ASC_NODE":157.3678,"ARG_OF_PERICENTER":265.4181,"MEAN_ANOMALY":94.6498,"EPHEMERIS_TYPE":0,"CLASSIFICATION_TYPE":"U","NORAD_CAT_ID":56105,"ELEMENT_SET_NO":999,"REV_AT_EPOCH":16210,"BSTAR":9.897116e-6,"MEAN_MOTION_DOT":-7.0e-7,"MEAN_MOTION_DDOT":0}]
